#aV2014  1  1  0  0  0.00000000     288 DD+AD WGS84 FIT  NGA
## 1773 259200.00000000   300.00000000 56658 0.0000000000000
+   31     1  2  3  4  5  6  7  8  9 10 11 12 13 14 15 16 17
+         18 19 20 21 22 23 24 25 26 27 28 29 31 32  0  0  0
+          0  0  0  0  0  0  0  0  0  0  0  0  0  0  0  0  0
+          0  0  0  0  0  0  0  0  0  0  0  0  0  0  0  0  0
+          0  0  0  0  0  0  0  0  0  0  0  0  0  0  0  0  0
++         2  2  2  2  2  2  2  2  2  2  2  2  2  2  2  2  2
++         2  2  2  2  2  2  2  2  2  2  2  2  2  2  0  0  0
++         0  0  0  0  0  0  0  0  0  0  0  0  0  0  0  0  0
++         0  0  0  0  0  0  0  0  0  0  0  0  0  0  0  0  0
++         0  0  0  0  0  0  0  0  0  0  0  0  0  0  0  0  0
%c cc cc ccc ccc cccc cccc cccc cccc ccccc ccccc ccccc ccccc
%c cc cc ccc ccc cccc cccc cccc cccc ccccc ccccc ccccc ccccc
%f  0.0000000  0.000000000  0.00000000000  0.000000000000000
%f  0.0000000  0.000000000  0.00000000000  0.000000000000000
%i    0    0    0    0      0      0      0      0         0
%i    0    0    0    0      0      0      0      0         0
/*      NGA, ST. LOUIS,MO.                                  
/*   EPHEMERIS COMPUTED FROM  1 DAYS OF DATA                
/*   EPOCHA SMOOTHER                                       
/* CCCCCCCCCCCCCCCCCCCCCCCCCCCCCCCCCCCCCCCCCCCCCCCCCCCCCCCCC
*  2014  1  1 10 40  0.00000000
P  1  15799.040407   -172.060952  21330.104033     97.507479                    
V  1   8738.383053  25710.150981  -6142.070101      0.026537                    
P  2 -14482.403730 -21023.317849  -7971.222278    470.222955                    
V  2  -1067.204100 -10692.309897  28724.472547      0.022021                    
P  3  22755.280884   8831.820073 -11214.408807    306.674751                    
V  3 -13499.371356   2434.845696 -26598.445334      0.048587                    
P  4  -5466.623096 -25295.888984   5050.591156      4.647499                    
V  4   5858.269509   5142.617588  30506.947281      0.002860                    
P  5 -12047.010520  -9798.770337 -21590.381766   -393.749099                    
V  5  17553.059897 -20993.876368   -109.351007      0.011504                    
P  6  17130.144294  13216.529079 -15609.870904    217.589174                    
V  6 -19914.722985    -49.322361 -21429.342669      0.158075                    
P  7   8684.753570 -15585.343289 -19498.245938    297.909079                    
V  7   9233.556563  23238.744441 -14722.137017      0.041658                    
P  8   2222.256575 -23376.144017 -11647.565560     10.986432                    
V  8   5310.748380  14349.954741 -28032.041725      0.002761                    
P  9     57.880394 -23746.424236 -12267.812923    294.765764                    
V  9   6674.604462  13285.424232 -26995.150656      0.028890                    
P 10   4165.295062 -21522.872220 -15018.443208   -108.239217                    
V 10  14235.739840 -12442.547801  22693.592251     -0.014969                    
P 11  20524.617860   6216.902796  15324.456234   -451.775361                    
V 11   9926.836837  18217.651218 -19836.568950     -0.033199                    
P 12 -20123.228494   6669.294659  15816.975251    177.531091                    
V 12  12386.300255 -16039.770161  22657.056267      0.023278                    
P 13  18482.856423  -7196.017441 -17867.689572     44.269176                    
V 13  21136.366019   7277.412447  18936.804977     -0.037878                    
P 14   -496.021130  15302.943583  21928.848702    206.039873                    
V 14 -26505.891927  -6468.002633   3814.838597     -0.011803                    
P 15 -26465.866132  -3656.251071    111.848632   -155.286320                    
V 15    267.484101  -3265.048466 -31071.040609     -0.020132                    
P 16  11299.759531   9372.511971 -22170.853818   -236.919262                    
V 16 -19203.271743  20370.784076   -843.610063      0.013188                    
P 17   -216.483672 -15457.170183  21860.562739    -55.250833                    
V 17  26553.436761   5604.381122   4037.804438     -0.033540                    
P 18 -16238.670496  20774.881547   1011.934513    293.637524                    
V 18  -3750.964049  -2063.070371 -31143.239106      0.021077                    
P 19  25810.706555   7210.353365   -206.688913   -429.287064                    
V 19   -721.433602   2208.005015 -31561.095357     -0.025529                    
P 20  20267.342927 -10492.608397  13330.483098    149.328205                    
V 20  -7840.669525  15799.840414  24091.032714      0.031305                    
P 21  -7457.363110  17601.501301 -17632.851672   -335.764887                    
V 21 -10582.667769 -21549.197377 -16966.026107     -0.020787                    
P 22  -7693.312636  22726.158871  11423.820045    204.178282                    
V 22 -11815.324770   8835.490567 -26133.849781      0.023450                    
P 23  25388.298117  -1235.629404  -8286.269728     16.484656                    
V 23   9907.425702   4409.677649  28963.590631     -0.032936                    
P 24 -16840.761365  -4901.032823  19961.224905    -20.802651                    
V 24  -7878.381581 -24118.066400 -12487.449300     -0.006899                    
P 25 -19195.755378  17465.481881   5304.362023      6.306657                    
V 25   2507.859997  -6780.979780  31185.761102      0.024848                    
P 26 -20449.049542 -13533.978755 -11241.568546    206.197511                    
V 26  13113.088402   1975.825183 -27550.193237     -0.104702                    
P 27  19621.623059  12482.015034 -12859.642500    -11.899256                    
V 27 -16448.550776   -593.694102 -25657.519329     -0.023560                    
P 28  11281.991417 -21882.574934  10356.834654    321.165270                    
V 28   9745.512983  -7688.515567 -28689.699176      0.029307                    
P 29 -21045.506547   5809.018383 -15058.467698    499.875451                    
V 29 -18285.543913  -6135.406653  23161.092476      0.029905                    
P 31   6575.988044  25436.353514   2696.047941    331.850831                    
V 31  -3357.061775  -2295.391008  32121.226994      0.004317                    
P 32  17551.184623   2425.071267  19694.729236   -508.230865                    
V 32 -16562.228090  18867.184722  13024.755715      0.054886                    
EOF
